[Satellite]
VERSION=1.1
NAME=PEASSS
NICKNAME=PEASSS
TLE1=1 42015U 17008BV  22342.15041691  .00022244  00000+0  62723-3 0  9994
TLE2=2 42015  97.2418  42.0922 0004548   8.9642 351.1683 15.36413849323395
STATUS=0
